[{"OBJECT_NAME":"STARLINK-3544","OBJECT_ID":"2022-017AM","EPOCH":"2026-03-09T22:33:44.191584","MEAN_MOTION":15.08831422,"ECCENTRICITY":0.00012801,"INCLINATION":53.2177,"RA_OF_ASC_NODE":347.9976,"ARG_OF_PERICENTER":83.4068,"MEAN_ANOMALY":276.707,"EPHEMERIS_TYPE":0,"CLASSIFICATION_TYPE":"U","NORAD_CAT_ID":51803,"ELEMENT_SET_NO":999,"REV_AT_EPOCH":22395,"BSTAR":3.325911e-5,"MEAN_MOTION_DOT":2.41e-6,"MEAN_MOTION_DDOT":0},{"OBJECT_NAME":"OBJECT E","OBJECT_ID":"2025-013E","EPOCH":"2026-03-09T23:59:52.369152","MEAN_MOTION":15.10347623,"ECCENTRICITY":0.00085591,"INCLINATION":97.6477,"RA_OF_ASC_NODE":238.3736,"ARG_OF_PERICENTER":6.9171,"MEAN_ANOMALY":353.2174,"EPHEMERIS_TYPE":0,"CLASSIFICATION_TYPE":"U","NORAD_CAT_ID":62733,"ELEMENT_SET_NO":999,"REV_AT_EPOCH":6224,"BSTAR":0.00032920786,"MEAN_MOTION_DOT":5.34e-5,"MEAN_MOTION_DDOT":0}]
